STARLINK-6205           
1 56898U 23083Y   25296.80277897 -.00000126  00000+0  57299-5 0  9990
2 56898  43.0033 105.1833 0001385 272.2130  87.8554 15.02547142131199
STARLINK-6203           
1 56899U 23083Z   25296.80610885  .00000543  00000+0  55278-4 0  9995
2 56899  43.0029 105.2079 0001213 268.9990  91.0713 15.02536508131192
STARLINK-6207           
1 56900U 23083AA  25296.74000728  .00001040  00000+0  92081-4 0  9996
2 56900  43.0034  93.4369 0001254 270.1544  89.9155 15.02536346131181
STARLINK-6185           
1 56901U 23083AB  25296.80056930  .00002169  00000+0  17555-3 0  9995
2 56901  43.0033 105.1664 0001376 267.9741  92.0944 15.02540093131194
STARLINK-6195           
1 56902U 23083AC  25296.73667760  .00001828  00000+0  15029-3 0  9992
2 56902  43.0031  93.4116 0001325 268.5728  91.4963 15.02554103131326
STARLINK-6192           
1 56903U 23083AD  25296.80389030  .00000666  00000+0  64379-4 0  9994
2 56903  43.0032 105.1908 0001708 267.4524  92.6122 15.02535770131199
STARLINK-6193           
1 56904U 23083AE  25296.77985055  .00000152  00000+0  26305-4 0  9997
2 56904  43.0029  92.8725 0001281 268.9699  91.0996 15.02533388131229
STARLINK-6183           
1 56905U 23083AF  25296.79983072  .00000273  00000+0  35312-4 0  9999
2 56905  43.0031  93.0282 0001314 268.5588  91.5103 15.02532422131227
STARLINK-6098           
1 56906U 23083AG  25296.79649650  .00001002  00000+0  89220-4 0  9999
2 56906  43.0037  92.9988 0001758 271.4639  88.6002 15.02536114131224
STARLINK-6110           
1 56907U 23083AH  25296.79760827  .00001370  00000+0  11647-3 0  9995
2 56907  43.0031  93.0089 0001293 270.5205  89.5489 15.02535822131332
STARLINK-6186           
1 56908U 23083AJ  25296.78650695 -.00000031  00000+0  12742-4 0  9998
2 56908  43.0030  92.9232 0001260 268.9361  91.1337 15.02533584131220
STARLINK-5999           
1 56909U 23083AK  25296.80094110  .00001320  00000+0  11279-3 0  9990
2 56909  43.0034  93.0320 0001260 250.6711 109.3995 15.02527609131337
STARLINK-6179           
1 56910U 23083AL  25296.78095703  .00000495  00000+0  51734-4 0  9991
2 56910  43.0030  92.8814 0001356 266.3000  93.7687 15.02535972131225
STARLINK-6116           
1 56911U 23083AM  25296.46082193 -.00002313  00000+0 -15631-3 0  9994
2 56911  43.0034  94.7800 0001220 276.8896  83.1807 15.02508755131175
STARLINK-5805           
1 56912U 23083AN  25296.77651744  .00000362  00000+0  41894-4 0  9994
2 56912  43.0029  92.8465 0001232 268.2465  91.8236 15.02533810131224
STARLINK-5950           
1 56913U 23083AP  25296.78985248  .00000865  00000+0  79124-4 0  9990
2 56913  43.0036  92.9472 0001367 273.9192  86.1494 15.02529970131226
STARLINK-5961           
1 56914U 23083AQ  25296.83635301  .00000445  00000+0  48039-4 0  9994
2 56914  43.0035  92.4361 0001207 267.5523  92.5181 15.02527541131235
STARLINK-5965           
1 56915U 23083AR  25296.78317575 -.00000307  00000+0 -76430-5 0  9995
2 56915  43.0032  92.8986 0001218 271.1696  88.9006 15.02536150131224
STARLINK-5973           
1 56916U 23083AS  25296.81968494  .00000258  00000+0  34169-4 0  9997
2 56916  43.0031  92.3117 0001270 266.1490  93.9207 15.02537755131208
STARLINK-5971           
1 56917U 23083AT  25296.83966694  .00000608  00000+0  60051-4 0  9998
2 56917  43.0027  92.4582 0001304 268.4678  91.6015 15.02534298131236
STARLINK-5951           
1 56918U 23083AU  25296.82968380  .00004233  00000+0  32813-3 0  9994
2 56918  43.0015  92.3833 0001374 282.0009  78.0679 15.02550825131238
STARLINK-5966           
1 56919U 23083AV  25296.83413276  .00004733  00000+0  36538-3 0  9998
2 56919  43.0016  92.4163 0001254 271.0511  89.0188 15.02519145131237
STARLINK-5960           
1 56920U 23083AW  25296.75653474  .00000482  00000+0  50716-4 0  9999
2 56920  43.0033  92.6934 0001272 270.8213  89.2484 15.02537501131228
STARLINK-5958           
1 56921U 23083AX  25296.83302271  .00001244  00000+0  10715-3 0  9996
2 56921  43.0031  92.4096 0001416 265.1177  94.9504 15.02532525131238
STARLINK-5937           
1 56922U 23083AY  25296.74322663  .00000068  00000+0  20082-4 0  9996
2 56922  43.0030  92.5970 0001239 268.6786  91.3914 15.02530832131221
STARLINK-5952           
1 56923U 23083AZ  25296.82633379  .00000629  00000+0  61664-4 0  9999
2 56923  43.0026  92.3584 0002156 260.5699  99.4899 15.02534417131234
STARLINK-5731           
1 56924U 23083BA  25296.74433317 -.00000120  00000+0  61687-5 0  9994
2 56924  43.0028  92.6039 0001298 265.3144  94.7550 15.02529263131335
STARLINK-5733           
1 56925U 23083BB  25296.74655390  .00000346  00000+0  40673-4 0  9992
2 56925  43.0028  92.6191 0001245 269.7178  90.3522 15.02532387131222
STARLINK-5746           
1 56926U 23083BC  25296.74988201  .00000895  00000+0  81345-4 0  9993
2 56926  43.0034  92.6462 0001118 261.4403  98.6313 15.02529619131223
STARLINK-5808           
1 56927U 23083BD  25296.55912025  .00000715  00000+0  68014-4 0  9993
2 56927  43.0036   4.3418 0001105 279.9506  80.1211 15.02537618132223
OTTER PUP               
1 56933U 23084B   25296.96359244  .00056189  00000+0  79463-3 0  9999
2 56933  97.5816  77.0810 0003253  19.1533 340.9843 15.56349035132088
GEISAT PRECURSOR        
1 56934U 23084C   25296.93184539  .00010956  00000+0  37696-3 0  9994
2 56934  97.5946  66.3608 0007623 102.1567 258.0528 15.30220997131348
LAYAN-23                
1 56939U 23084H   25297.03549403  .04085316  26014-5  79366-3 0  9991
2 56939  97.5332  92.4413 0007879 227.3894 132.6737 16.31726166133108
AFRL-XVI                
1 56942U 23084L   25296.93228494  .00111049  00000+0  69352-3 0  9991
2 56942  97.5772  85.5758 0001094 348.5792  11.5448 15.76548136132606
NUSAT-40 (C SHOEMAKER)  
1 56943U 23084M   25296.94587331  .00039426  00000+0  78921-3 0  9991
2 56943  97.4678  66.2192 0005335  44.7153 315.4526 15.46643228131996
NUSAT-41 (C PAYNE-G)    
1 56944U 23084N   25296.50584976  .00022955  00000+0  77572-3 0  9996
2 56944  97.5260  64.8523 0005288  79.0422 281.1413 15.30645691131593
GREGOIRE                
1 56946U 23084Q   25296.90428716  .00012368  00000+0  39654-3 0  9997
2 56946  97.5961  68.1457 0008530  80.2128 280.0076 15.32463625131451
ICEYE-X30               
1 56947U 23084R   25296.92405812  .00056354  00000+0  97220-3 0  9998
2 56947  97.5776  73.9644 0004813 107.9007 252.2770 15.50834429131895
ICEYE-X23               
1 56949U 23084T   25296.93729482  .00147705  00000+0  14242-2 0  9996
2 56949  97.5700  76.5522 0002280  30.5597 329.5795 15.66026728132066
BLACKJACK ACES-3        
1 56950U 23084U   25296.91306107  .00011532  00000+0  52213-3 0  9990
2 56950  97.5931  65.2169 0009523  88.1102 272.1224 15.21009779131274
BLACKJACK ACES-4        
1 56952U 23084W   25296.97014226  .00085616  00000+0  74465-3 0  9993
2 56952  97.5853  80.8626 0004740  16.5433 343.5982 15.68775407132294
RUNNER-1 (TYVAK-1005)   
1 56953U 23084X   25296.62228595  .00013966  00000+0  45715-3 0  9997
2 56953  97.5954  66.2739 0009788  79.4470 280.7873 15.31755330131312
BLACKJACK ACES-2        
1 56955U 23084Z   25296.63521738  .00007261  00000+0  33779-3 0  9993
2 56955  97.5935  65.0726 0009067  89.1205 271.1069 15.20222111131247
BLACKJACK ACES-1        
1 56956U 23084AA  25296.93238530  .00015199  00000+0  67445-3 0  9998
2 56956  97.5909  65.0901 0007855  86.0861 274.1273 15.21645325 81006
ION SCV-011             
1 56957U 23084AB  25296.95426755  .00008441  00000+0  33640-3 0  9991
2 56957  98.1264  98.0400 0008543 132.1027 228.0937 15.25473100129754
GHOST-3                 
1 56958U 23084AC  25296.36412451  .00022134  00000+0  59086-3 0  9992
2 56958  97.5945  69.4428 0008632  69.2466 290.9702 15.38097597131490
ORBITER SN3             
1 56960U 23084AE  25296.88060217  .00010899  00000+0  37963-3 0  9996
2 56960  97.5984  66.0978 0010020  91.2016 269.0372 15.29803219131305
ICEYE-X26               
1 56961U 23084AF  25296.95998439  .00040014  00000+0  51679-3 0  9993
2 56961  97.5731  77.2813 0000821  86.2448 273.8902 15.58867988132116
TOMORROW-R2             
1 56962U 23084AG  25296.90519972  .00048496  00000+0  78946-3 0  9998
2 56962  97.5861  75.5850 0006267  48.7628 311.4164 15.52492429131954
ICEYE-X25               
1 56963U 23084AH  25296.91952629  .00036863  00000+0  95458-3 0  9992
2 56963  97.5767  66.1433 0006346  75.5143 284.6805 15.38944732131384
AFR-1                   
1 56964U 23084AJ  25296.96414067  .00008237  00000+0  32694-3 0  9994
2 56964  97.5987  63.9703 0012507  90.7263 269.5408 15.25545601131178
DROID.001               
1 56965U 23084AK  25296.96211806  .00078215  00000+0  93843-3 0  9997
2 56965  97.5845  77.8135 0004746  19.3002 340.8434 15.60642352132116
NUSAT-42 (M WONENBURGER)
1 56966U 23084AL  25296.91574538  .00022981  00000+0  70707-3 0  9990
2 56966  97.5456  68.4629 0007533  23.8988 336.2602 15.33643867131723
NUSAT-43 (R DIENG-KUNTZ)
1 56968U 23084AN  25296.91081010  .00053880  00000+0  87380-3 0  9997
2 56968  97.4327  67.2509 0006479  13.2381 346.9041 15.52571791132210
LEMUR-2-EMBRIONOVIS     
1 56970U 23084AQ  25296.36341189  .00010729  00000+0  35023-3 0  9997
2 56970  97.6013  68.0828 0011283  78.3557 281.8950 15.31897311131363
AAC-HSI-SAT2            
1 56995U 23084BX  25296.91294598  .00005756  00000+0  28561-3 0  9999
2 56995  97.7953  74.1846 0011766 283.7263  76.2660 15.18068755130465
AAC-AIS-SAT2            
1 56996U 23084BY  25296.93211064  .00006125  00000+0  72806-3 0  9991
2 56996  98.1195  67.1302 0059814 144.8328 215.6856 14.83500994118327
2023-085A               
1 57004U 23085A   25296.95901021  .00017107  00000+0  72301-3 0  9996
2 57004  97.4888  41.0942 0008903 139.6194 220.5705 15.23266832130514
2023-085B               
1 57005U 23085B   25296.91052704  .00085689  00000+0  13245-2 0  9999
2 57005  97.4800  51.0937 0002541 127.3771 232.7714 15.53796261131222
